STARLINK-34765          
1 66506U 25263X   25330.41668980 -.01485337  00000+0 -55539-2 0  9997
2 66506  42.9984 222.8018 0001888 263.5572  71.3337 15.89834485  3012
STARLINK-34767          
1 66507U 25263Y   25330.41668980 -.01501071  00000+0 -56170-2 0  9994
2 66507  42.9987 222.7863 0001975 266.2693  74.7892 15.89851323  3017
STARLINK-35608          
1 66508U 25263Z   25330.41668980 -.01519985  00000+0 -56846-2 0  9998
2 66508  42.9982 222.7661 0001912 263.3781  85.5273 15.89903189  3017
STARLINK-35598          
1 66509U 25263AA  25330.41668980 -.01583050  00000+0 -57957-2 0  9997
2 66509  42.9980 222.7343 0001989 264.6758  96.5662 15.89956914  3013
STARLINK-35600          
1 66510U 25263AB  25330.41668980 -.01524691  00000+0 -57031-2 0  9998
2 66510  42.9982 222.7572 0002033 265.4015  86.8720 15.89908119  3018
STARLINK-35444          
1 66511U 25263AC  25330.41668980 -.01572693  00000+0 -57590-2 0  9994
2 66511  42.9979 222.7419 0001917 265.3303  92.9159 15.89936161  3016
STARLINK-35366          
1 66512U 25263AD  25330.41668980 -.01615032  00000+0 -59229-2 0  9991
2 66512  42.9977 222.7255 0001883 265.6085  99.0034 15.89979663  3019
STARLINK-35692          
1 66513U 25263AE  25330.41668980 -.01568686  00000+0 -57472-2 0  9992
2 66513  42.9980 222.7489 0001880 264.3742  91.1323 15.89920403  3018
SENTINEL-6B             
1 66514U 25264A   25330.05815817  .00000756  00000+0  33133-2 0  9991
2 66514  66.0398 197.3143 0011438 269.5760  90.3947 12.85878521  1141
SZ-21 MODULE            
1 66515U 25246C   25330.49001485  .00027464  00000+0  31591-3 0  9990
2 66515  41.4758 115.0872 0004962 155.9107 204.1965 15.61369573  1900
STARLINK-35924          
1 66516U 25265A   25329.66673611 -.01347621  52429-3 -38100-2 0  9996
2 66516  43.0010 156.8597 0001868 273.8213  73.1002 15.92570006  2239
STARLINK-35937          
1 66517U 25265B   25329.66673611 -.01354770  52975-3 -38167-2 0  9999
2 66517  43.0011 156.8559 0001828 273.3998  75.1633 15.92638479  2253
