CCSDS_OMM_VERS = 2.0
CREATION_DATE  = 
ORIGINATOR     = 

OBJECT_NAME    = STARLINK-34765
OBJECT_ID      = 2025-263X
CENTER_NAME    = EARTH
REF_FRAME      = TEME
TIME_SYSTEM    = UTC
MEAN_ELEMENT_THEORY = SGP/SGP4

EPOCH          = 2025-11-26T10:00:01.998720
MEAN_MOTION    = 15.89834485
ECCENTRICITY   = .0001888
INCLINATION    = 42.9984
RA_OF_ASC_NODE = 222.8018
ARG_OF_PERICENTER = 263.5572
MEAN_ANOMALY   = 71.3337

EPHEMERIS_TYPE = 0
CLASSIFICATION_TYPE = U
NORAD_CAT_ID   = 66506
ELEMENT_SET_NO = 999
REV_AT_EPOCH   = 301
BSTAR          = -.55539E-2
MEAN_MOTION_DOT = -.1485337E-1
MEAN_MOTION_DDOT = 0

CCSDS_OMM_VERS = 2.0
CREATION_DATE  = 
ORIGINATOR     = 

OBJECT_NAME    = STARLINK-34767
OBJECT_ID      = 2025-263Y
CENTER_NAME    = EARTH
REF_FRAME      = TEME
TIME_SYSTEM    = UTC
MEAN_ELEMENT_THEORY = SGP/SGP4

EPOCH          = 2025-11-26T10:00:01.998720
MEAN_MOTION    = 15.89851323
ECCENTRICITY   = .0001975
INCLINATION    = 42.9987
RA_OF_ASC_NODE = 222.7863
ARG_OF_PERICENTER = 266.2693
MEAN_ANOMALY   = 74.7892

EPHEMERIS_TYPE = 0
CLASSIFICATION_TYPE = U
NORAD_CAT_ID   = 66507
ELEMENT_SET_NO = 999
REV_AT_EPOCH   = 301
BSTAR          = -.5617E-2
MEAN_MOTION_DOT = -.1501071E-1
MEAN_MOTION_DDOT = 0

CCSDS_OMM_VERS = 2.0
CREATION_DATE  = 
ORIGINATOR     = 

OBJECT_NAME    = STARLINK-35608
OBJECT_ID      = 2025-263Z
CENTER_NAME    = EARTH
REF_FRAME      = TEME
TIME_SYSTEM    = UTC
MEAN_ELEMENT_THEORY = SGP/SGP4

EPOCH          = 2025-11-26T10:00:01.998720
MEAN_MOTION    = 15.89903189
ECCENTRICITY   = .0001912
INCLINATION    = 42.9982
RA_OF_ASC_NODE = 222.7661
ARG_OF_PERICENTER = 263.3781
MEAN_ANOMALY   = 85.5273

EPHEMERIS_TYPE = 0
CLASSIFICATION_TYPE = U
NORAD_CAT_ID   = 66508
ELEMENT_SET_NO = 999
REV_AT_EPOCH   = 301
BSTAR          = -.56846E-2
MEAN_MOTION_DOT = -.1519985E-1
MEAN_MOTION_DDOT = 0

CCSDS_OMM_VERS = 2.0
CREATION_DATE  = 
ORIGINATOR     = 

OBJECT_NAME    = STARLINK-35598
OBJECT_ID      = 2025-263AA
CENTER_NAME    = EARTH
REF_FRAME      = TEME
TIME_SYSTEM    = UTC
MEAN_ELEMENT_THEORY = SGP/SGP4

EPOCH          = 2025-11-26T10:00:01.998720
MEAN_MOTION    = 15.89956914
ECCENTRICITY   = .0001989
INCLINATION    = 42.9980
RA_OF_ASC_NODE = 222.7343
ARG_OF_PERICENTER = 264.6758
MEAN_ANOMALY   = 96.5662

EPHEMERIS_TYPE = 0
CLASSIFICATION_TYPE = U
NORAD_CAT_ID   = 66509
ELEMENT_SET_NO = 999
REV_AT_EPOCH   = 301
BSTAR          = -.57957E-2
MEAN_MOTION_DOT = -.158305E-1
MEAN_MOTION_DDOT = 0

CCSDS_OMM_VERS = 2.0
CREATION_DATE  = 
ORIGINATOR     = 

OBJECT_NAME    = STARLINK-35600
OBJECT_ID      = 2025-263AB
CENTER_NAME    = EARTH
REF_FRAME      = TEME
TIME_SYSTEM    = UTC
MEAN_ELEMENT_THEORY = SGP/SGP4

EPOCH          = 2025-11-26T10:00:01.998720
MEAN_MOTION    = 15.89908119
ECCENTRICITY   = .0002033
INCLINATION    = 42.9982
RA_OF_ASC_NODE = 222.7572
ARG_OF_PERICENTER = 265.4015
MEAN_ANOMALY   = 86.8720

EPHEMERIS_TYPE = 0
CLASSIFICATION_TYPE = U
NORAD_CAT_ID   = 66510
ELEMENT_SET_NO = 999
REV_AT_EPOCH   = 301
BSTAR          = -.57031E-2
MEAN_MOTION_DOT = -.1524691E-1
MEAN_MOTION_DDOT = 0

CCSDS_OMM_VERS = 2.0
CREATION_DATE  = 
ORIGINATOR     = 

OBJECT_NAME    = STARLINK-35444
OBJECT_ID      = 2025-263AC
CENTER_NAME    = EARTH
REF_FRAME      = TEME
TIME_SYSTEM    = UTC
MEAN_ELEMENT_THEORY = SGP/SGP4

EPOCH          = 2025-11-26T10:00:01.998720
MEAN_MOTION    = 15.89936161
ECCENTRICITY   = .0001917
INCLINATION    = 42.9979
RA_OF_ASC_NODE = 222.7419
ARG_OF_PERICENTER = 265.3303
MEAN_ANOMALY   = 92.9159

EPHEMERIS_TYPE = 0
CLASSIFICATION_TYPE = U
NORAD_CAT_ID   = 66511
ELEMENT_SET_NO = 999
REV_AT_EPOCH   = 301
BSTAR          = -.5759E-2
MEAN_MOTION_DOT = -.1572693E-1
MEAN_MOTION_DDOT = 0

CCSDS_OMM_VERS = 2.0
CREATION_DATE  = 
ORIGINATOR     = 

OBJECT_NAME    = STARLINK-35366
OBJECT_ID      = 2025-263AD
CENTER_NAME    = EARTH
REF_FRAME      = TEME
TIME_SYSTEM    = UTC
MEAN_ELEMENT_THEORY = SGP/SGP4

EPOCH          = 2025-11-26T10:00:01.998720
MEAN_MOTION    = 15.89979663
ECCENTRICITY   = .0001883
INCLINATION    = 42.9977
RA_OF_ASC_NODE = 222.7255
ARG_OF_PERICENTER = 265.6085
MEAN_ANOMALY   = 99.0034

EPHEMERIS_TYPE = 0
CLASSIFICATION_TYPE = U
NORAD_CAT_ID   = 66512
ELEMENT_SET_NO = 999
REV_AT_EPOCH   = 301
BSTAR          = -.59229E-2
MEAN_MOTION_DOT = -.1615032E-1
MEAN_MOTION_DDOT = 0

CCSDS_OMM_VERS = 2.0
CREATION_DATE  = 
ORIGINATOR     = 

OBJECT_NAME    = STARLINK-35692
OBJECT_ID      = 2025-263AE
CENTER_NAME    = EARTH
REF_FRAME      = TEME
TIME_SYSTEM    = UTC
MEAN_ELEMENT_THEORY = SGP/SGP4

EPOCH          = 2025-11-26T10:00:01.998720
MEAN_MOTION    = 15.89920403
ECCENTRICITY   = .000188
INCLINATION    = 42.9980
RA_OF_ASC_NODE = 222.7489
ARG_OF_PERICENTER = 264.3742
MEAN_ANOMALY   = 91.1323

EPHEMERIS_TYPE = 0
CLASSIFICATION_TYPE = U
NORAD_CAT_ID   = 66513
ELEMENT_SET_NO = 999
REV_AT_EPOCH   = 301
BSTAR          = -.57472E-2
MEAN_MOTION_DOT = -.1568686E-1
MEAN_MOTION_DDOT = 0

CCSDS_OMM_VERS = 2.0
CREATION_DATE  = 
ORIGINATOR     = 

OBJECT_NAME    = SENTINEL-6B
OBJECT_ID      = 2025-264A
CENTER_NAME    = EARTH
REF_FRAME      = TEME
TIME_SYSTEM    = UTC
MEAN_ELEMENT_THEORY = SGP/SGP4

EPOCH          = 2025-11-26T01:23:44.866752
MEAN_MOTION    = 12.85878521
ECCENTRICITY   = .00114376
INCLINATION    = 66.0398
RA_OF_ASC_NODE = 197.3143
ARG_OF_PERICENTER = 269.5760
MEAN_ANOMALY   = 90.3947

EPHEMERIS_TYPE = 0
CLASSIFICATION_TYPE = U
NORAD_CAT_ID   = 66514
ELEMENT_SET_NO = 999
REV_AT_EPOCH   = 114
BSTAR          = .33133244E-2
MEAN_MOTION_DOT = .756E-5
MEAN_MOTION_DDOT = 0

CCSDS_OMM_VERS = 2.0
CREATION_DATE  = 
ORIGINATOR     = 

OBJECT_NAME    = SZ-21 MODULE
OBJECT_ID      = 2025-246C
CENTER_NAME    = EARTH
REF_FRAME      = TEME
TIME_SYSTEM    = UTC
MEAN_ELEMENT_THEORY = SGP/SGP4

EPOCH          = 2025-11-26T11:45:37.283040
MEAN_MOTION    = 15.61369573
ECCENTRICITY   = .0004962
INCLINATION    = 41.4758
RA_OF_ASC_NODE = 115.0872
ARG_OF_PERICENTER = 155.9107
MEAN_ANOMALY   = 204.1965

EPHEMERIS_TYPE = 0
CLASSIFICATION_TYPE = U
NORAD_CAT_ID   = 66515
ELEMENT_SET_NO = 999
REV_AT_EPOCH   = 190
BSTAR          = .31591E-3
MEAN_MOTION_DOT = .27464E-3
MEAN_MOTION_DDOT = 0

CCSDS_OMM_VERS = 2.0
CREATION_DATE  = 
ORIGINATOR     = 

OBJECT_NAME    = STARLINK-35924
OBJECT_ID      = 2025-265A
CENTER_NAME    = EARTH
REF_FRAME      = TEME
TIME_SYSTEM    = UTC
MEAN_ELEMENT_THEORY = SGP/SGP4

EPOCH          = 2025-11-25T16:00:05.999904
MEAN_MOTION    = 15.92570006
ECCENTRICITY   = .00018686
INCLINATION    = 43.0010
RA_OF_ASC_NODE = 156.8597
ARG_OF_PERICENTER = 273.8213
MEAN_ANOMALY   = 73.1002

EPHEMERIS_TYPE = 0
CLASSIFICATION_TYPE = U
NORAD_CAT_ID   = 66516
ELEMENT_SET_NO = 999
REV_AT_EPOCH   = 223
BSTAR          = -.38099931E-2
MEAN_MOTION_DOT = -.1347621E-1
MEAN_MOTION_DDOT = .52428757E-3

CCSDS_OMM_VERS = 2.0
CREATION_DATE  = 
ORIGINATOR     = 

OBJECT_NAME    = STARLINK-35937
OBJECT_ID      = 2025-265B
CENTER_NAME    = EARTH
REF_FRAME      = TEME
TIME_SYSTEM    = UTC
MEAN_ELEMENT_THEORY = SGP/SGP4

EPOCH          = 2025-11-25T16:00:05.999904
MEAN_MOTION    = 15.92638479
ECCENTRICITY   = .00018285
INCLINATION    = 43.0011
RA_OF_ASC_NODE = 156.8559
ARG_OF_PERICENTER = 273.3998
MEAN_ANOMALY   = 75.1633

EPHEMERIS_TYPE = 0
CLASSIFICATION_TYPE = U
NORAD_CAT_ID   = 66517
ELEMENT_SET_NO = 999
REV_AT_EPOCH   = 225
BSTAR          = -.38167375E-2
MEAN_MOTION_DOT = -.135477E-1
MEAN_MOTION_DDOT = .52974552E-3

